[
    {
        "Altitude(m)": 610399.5732600081,
        "Argument of Periapsis(deg)": 0.0,
        "Eccentricity": 0.0,
        "Inclination(deg)": 60.0,
        "Latitude(deg)": 52.11145749412847,
        "Longitude(deg)": 122.5843511947955,
        "Mean Anomaly(deg)": 65.45449999999998,
        "RAAN(deg)": 175.0,
        "Satellite Name": "Test1 774",
        "Satellite Number": 774,
        "Semi-Major Axis(m)": 6980739.136638005,
        "Time(s)": 0
    },
    {
        "Altitude(m)": 610481.724023089,
        "Argument of Periapsis(deg)": 0.00010418945913296404,
        "Eccentricity": 0.0,
        "Inclination(deg)": 60.0,
        "Latitude(deg)": 52.471059243159374,
        "Longitude(deg)": 123.36649017052724,
        "Mean Anomaly(deg)": 66.07460614546183,
        "RAAN(deg)": 174.99957995086024,
        "Satellite Name": "Test1 774",
        "Satellite Number": 774,
        "Semi-Major Axis(m)": 6980739.136638005,
        "Time(s)": 10
    }
]